{"type":"FeatureCollection","bbox":[-0.782777184690091,52.87867106031194,-0.7554904709140131,52.89441886757678],"properties":{"source":"WTM_2026_V5.kmz","extractedAt":null,"center":[-0.7691338278020521,52.88654496394436],"featureCount":48},"features":[{"type":"Feature","properties":{"name":"","folder":"Mile Markers","obstacleNum":null,"kind":"point"},"geometry":{"type":"Point","coordinates":[-0.7565111214306364,52.89297472122888]}},{"type":"Feature","properties":{"name":"","folder":"Mile Markers","obstacleNum":null,"kind":"point"},"geometry":{"type":"Point","coordinates":[-0.766589639318983,52.88508804999771]}},{"type":"Feature","properties":{"name":"","folder":"Mile Markers","obstacleNum":null,"kind":"point"},"geometry":{"type":"Point","coordinates":[-0.7675829044250471,52.88041734160095]}},{"type":"Feature","properties":{"name":"","folder":"Mile Markers","obstacleNum":null,"kind":"point"},"geometry":{"type":"Point","coordinates":[-0.7791690417407826,52.88147932372674]}},{"type":"Feature","properties":{"name":"","folder":"Mile Markers","obstacleNum":null,"kind":"point"},"geometry":{"type":"Point","coordinates":[-0.7717696730591617,52.8914225724013]}},{"type":"Feature","properties":{"name":"Water Station","folder":"Course","obstacleNum":null,"kind":"point"},"geometry":{"type":"Point","coordinates":[-0.7685206183127657,52.88095689294941]}},{"type":"Feature","properties":{"name":"Hot Lap Diversion","folder":"Course","obstacleNum":null,"kind":"linestring"},"geometry":{"type":"LineString","coordinates":[[-0.7696771837384164,52.89135815627811],[-0.7692058126180701,52.89127498305858],[-0.7688060758505333,52.89115076084811],[-0.7685952812598607,52.89096928781823],[-0.7685515917218433,52.89078453292539],[-0.768553973161169,52.8905756908674],[-0.7685286325424456,52.8903744720617],[-0.7683578030467164,52.89009385191052],[-0.7680264797058434,52.89002017444171],[-0.7675255359949607,52.89006658069008],[-0.7671786112057344,52.89033754608713],[-0.7669489254792061,52.89057994757776],[-0.7669421815047772,52.89058850073664],[-0.7668827065944805,52.89082455956308],[-0.7670007693459457,52.89108961771522],[-0.7671878227972639,52.89133808160243],[-0.7671970608504564,52.89161279383815],[-0.767022987372824,52.89179437689082],[-0.7670098946000281,52.89179964538427],[-0.7666425477420957,52.89205797565106],[-0.7663660589493548,52.89223068539687],[-0.7662081429952416,52.89232170578187]]}},{"type":"Feature","properties":{"name":"WTM - 5 Mile Loop - V3 5.0","folder":"Course","obstacleNum":null,"kind":"linestring"},"geometry":{"type":"LineString","coordinates":[[-0.7703294012029827,52.89138085491871],[-0.7697513470002082,52.89136467775366],[-0.7697413260753183,52.89136265560981],[-0.7688935229793814,52.89132022528883],[-0.7681042450765962,52.89125769695496],[-0.7675096507395396,52.89128591319552],[-0.7672823648397686,52.89136875275067],[-0.7671892954606852,52.89152774640956],[-0.7671706851999327,52.89163631801064],[-0.7669149202034709,52.8918624996342],[-0.7665633256796456,52.89210063119515],[-0.7662793649027533,52.89228719137232],[-0.7661129725355786,52.89236663710726],[-0.7657030592380332,52.89242529871365],[-0.7652462788932046,52.89244627040638],[-0.7645461128996311,52.89246276155064],[-0.7641719676340719,52.89251293217348],[-0.7638995495831946,52.8925443306922],[-0.7635800893831213,52.89253803337938],[-0.7633762748877904,52.89253174180438],[-0.7631444201364823,52.89244390917528],[-0.7630527058713699,52.89225484655892],[-0.7630609886984141,52.89211137242771],[-0.763147501098248,52.89189645037487],[-0.7633415144307476,52.89156480693837],[-0.7634328296740245,52.89136399094739],[-0.7635869328026423,52.89103637692727],[-0.7636864868006976,52.89080350545556],[-0.7640017639968877,52.89032881161049],[-0.7642060910556703,52.89017951488535],[-0.7643815795080999,52.889998528398],[-0.7645086182455996,52.8897985287667],[-0.7645315745364278,52.88969001960712],[-0.7644049683791398,52.8895799157111],[-0.7641852199535037,52.8895579381928],[-0.7638998440497657,52.88955992323086],[-0.7636518620910582,52.88960987043322],[-0.7634470046840203,52.88968195372776],[-0.7631645387662644,52.88970601167861],[-0.7628918778295357,52.88974013367834],[-0.7627021278001866,52.88975218148737],[-0.7623890641421793,52.88976221667437],[-0.7622423272798784,52.88979439788913],[-0.7620719260762909,52.88984475631521],[-0.7619244576941953,52.8899073268729],[-0.761596707752219,52.88993763657481],[-0.7613023957826737,52.88995178298833],[-0.761054680604184,52.88996796379994],[-0.7608670107735083,52.88998415721979],[-0.7606078228865554,52.89003484136978],[-0.7603726466116512,52.89014668301613],[-0.7599520782999747,52.89032653061569],[-0.7597156568565722,52.89063835901224],[-0.7593952671609683,52.89091470063735],[-0.7591152954008229,52.89120190641914],[-0.7589557011140269,52.89127363501824],[-0.7587269549333997,52.89139701575455],[-0.7584998550834143,52.89154577088178],[-0.7584729743301311,52.89175992639266],[-0.7582597419732995,52.89198017750051],[-0.7580628282246427,52.89207868418655],[-0.7577383558854855,52.89212392381366],[-0.7573222247589784,52.89217128737705],[-0.7572562574948771,52.89233053944933],[-0.7572559161485259,52.89234091094384],[-0.7573216945080652,52.8925073656982],[-0.7565108100946194,52.8929656573486],[-0.7562673161111533,52.89309025558688],[-0.7559219203195455,52.89318403739914],[-0.7558193577501582,52.89320491599435],[-0.755597491185418,52.89314644003541],[-0.7554969491620311,52.8930319510457],[-0.7554904709140131,52.89285797295091],[-0.7555642382568373,52.89269941002041],[-0.7559013309933815,52.8924866390356],[-0.7561841890103005,52.89233214007471],[-0.7569603913903711,52.89189351132745],[-0.7574630613417244,52.89168661035759],[-0.7579615275883134,52.89144922137958],[-0.7584518629155745,52.89128958087349],[-0.7589099334947125,52.8910476854831],[-0.7592111721713357,52.89074561678382],[-0.7594347803104706,52.89054310110862],[-0.7596998959438872,52.89033339596216],[-0.7597855629469985,52.89018454532179],[-0.7598588388552296,52.89008649707117],[-0.7599919638019359,52.88995717680962],[-0.7600895435462107,52.88974851464553],[-0.7601977300230978,52.8896069304788],[-0.7602806416833452,52.88947707856639],[-0.7603919685435356,52.88938666306708],[-0.7605837866698284,52.88929878225931],[-0.7606669733285698,52.88918766086914],[-0.760692904014808,52.88907332612978],[-0.7605314976327282,52.88893449309687],[-0.7602876133587322,52.88882256406953],[-0.7598629759129061,52.88868163412397],[-0.7596355196736726,52.88848323879414],[-0.7596009905037793,52.88830756092012],[-0.7596898669944063,52.88813931528441],[-0.7598878984333635,52.88809645972617],[-0.7602583133915597,52.88812980281917],[-0.7606781845457644,52.88816324522458],[-0.7612624846514338,52.88817762454136],[-0.7616750205999256,52.88829796919924],[-0.7622082071401148,52.888351337145],[-0.7629703841669866,52.88843430084781],[-0.763408712137057,52.88849800682635],[-0.7637799723198735,52.88857772128759],[-0.7642407937703821,52.88861379195494],[-0.7644461017296256,52.8885832495465],[-0.7645493284031746,52.88841661180526],[-0.7645537139036573,52.88824396841123],[-0.7644689047499975,52.88788053000207],[-0.7646218259737614,52.88736970246947],[-0.7648294147398382,52.88701891237867],[-0.7650453380815547,52.88667993705737],[-0.7652463300568579,52.88636606101993],[-0.7653394120418577,52.88625154247836],[-0.7653524905489251,52.88620429259522],[-0.7660787040436945,52.88527481386609],[-0.7667037394260356,52.88506659379571],[-0.7672053666891732,52.88493847950587],[-0.767580909543707,52.88485434773779],[-0.767723717425427,52.88483983515729],[-0.7678976442331031,52.88484853987081],[-0.7680477326263668,52.8848224802064],[-0.7680912438454446,52.88476793438235],[-0.7680418279806245,52.88467748672917],[-0.7679382226874198,52.88465514749787],[-0.7679210573814033,52.88465236264859],[-0.7678271629743438,52.88464401779287],[-0.767695074593211,52.884630143382],[-0.7674656095061794,52.88456685953184],[-0.7665233743648392,52.88425375677229],[-0.7663592159631072,52.88409153469921],[-0.766407503230212,52.88388437014287],[-0.766684642791482,52.88346595996604],[-0.7668453763930205,52.88329480533205],[-0.7669108783331124,52.88307315016504],[-0.7668520088636632,52.88290507450638],[-0.7664929935938003,52.88287430831618],[-0.7662196758467255,52.88284070916987],[-0.7659555658641615,52.88280731271935],[-0.7654604972307233,52.88276366578542],[-0.7649483645943644,52.88272338847882],[-0.7649007789307549,52.88260557050694],[-0.7651386136652616,52.88240738015516],[-0.7652102279085871,52.88212876641572],[-0.765333643351972,52.88197253179161],[-0.7655476224904301,52.88178342537803],[-0.7660618615250847,52.88164361685273],[-0.7666276527420823,52.88151610329969],[-0.76709178041098,52.88121242758738],[-0.7671208227147419,52.88101436817018],[-0.7669515407420224,52.88077000926757],[-0.7665954255630569,52.88060233100254],[-0.7662086140580204,52.8802483976565],[-0.7655915732868823,52.88003188020904],[-0.7650440326127517,52.87986832484518],[-0.7644338885868984,52.87972644147037],[-0.7640594422284785,52.879536850447],[-0.7640507837072985,52.8792171274054],[-0.7644647474529809,52.87885851858781],[-0.7651307500881821,52.87885854718537],[-0.7651393347948976,52.87886133263301],[-0.7658744843639176,52.87916937538884],[-0.7664348690342748,52.87951773919515],[-0.7664448205632357,52.87952733359613],[-0.7671816202744186,52.88007096519256],[-0.7675713238844106,52.88038003134667],[-0.7676099252057,52.88053479951093],[-0.767795346839597,52.88070264258977],[-0.7680966666696742,52.8808458058588],[-0.7688669177240526,52.88101690229885],[-0.769279045758462,52.88098242624355],[-0.7693753645754142,52.88091602525159],[-0.7696116777511819,52.88074388453253],[-0.769868700538775,52.88056678996823],[-0.7700289004662386,52.88035050189932],[-0.7700772139349843,52.88015754514946],[-0.7701337476792303,52.8799360020604],[-0.7702378785180619,52.87992167004094],[-0.7706802927087941,52.88003088526856],[-0.77104945455017,52.88008795549256],[-0.7712631516485668,52.88014571024123],[-0.7713721920020533,52.8802383408682],[-0.7714615926562429,52.88029744620194],[-0.7717396591026615,52.88043206292407],[-0.7723262999623315,52.88071990228343],[-0.7732827473761705,52.88086474740294],[-0.7741318065970415,52.8808539846626],[-0.7752448865507189,52.88088422791269],[-0.7770733663011387,52.88091865501286],[-0.777952497876736,52.88084838733517],[-0.7785833410839282,52.88064453460072],[-0.7789783576865061,52.88046915659901],[-0.7790406191948251,52.88009620791767],[-0.7793920975556612,52.87964485750573],[-0.7798135686441909,52.87891531947811],[-0.7802711516449812,52.87867106232142],[-0.7803196841318005,52.87867106031194],[-0.7809846637328344,52.8787729538976],[-0.7817014167707359,52.87906941615629],[-0.7821717354467705,52.87933288426907],[-0.7826970518658949,52.8797134239446],[-0.782777184690091,52.8800468513118],[-0.7827354548456711,52.88036204646834],[-0.7825424355701482,52.88068588711342],[-0.7821531047135044,52.88095967553581],[-0.7811751593781624,52.88109002439987],[-0.7803343226018267,52.88116771547894],[-0.7798193688587196,52.88119773333451],[-0.7780817127069417,52.88192214531757],[-0.7765682775689198,52.88241293534509],[-0.7762479127471889,52.88268691399892],[-0.7755926776745792,52.88332686231338],[-0.7750617848406449,52.88380322042061],[-0.7748514010168128,52.88405609381805],[-0.7748437028076427,52.88444538887546],[-0.7756556050767482,52.88497015377192],[-0.7760780861878835,52.88525806455962],[-0.7763774766422216,52.88553701596238],[-0.7768036776411447,52.88572806212105],[-0.7772748893735382,52.8859099646421],[-0.7777515010839064,52.88610334763734],[-0.7777914933160623,52.88622955414163],[-0.7775624794458247,52.88622938831378],[-0.7773414032210779,52.88623138699424],[-0.7771494739002416,52.88624928410209],[-0.7771005064808323,52.88632755387842],[-0.7771781853671955,52.88654680192216],[-0.7772908663348221,52.88677168869835],[-0.7772975966956208,52.88678940792591],[-0.7774622676018217,52.88703012250362],[-0.7775721488798981,52.88724115725064],[-0.7775832501071656,52.88725326542536],[-0.7777242800522377,52.88748106296738],[-0.7777502144943116,52.88774984280165],[-0.7778383125173682,52.88792991162269],[-0.7778705201640079,52.88807762259422],[-0.7779361756988967,52.88822342504014],[-0.7781112538660107,52.88832353254987],[-0.7782327470704575,52.88846517646752],[-0.7782455784900444,52.88863883257849],[-0.7782808106159911,52.88878289546711],[-0.7782916988200694,52.88890854893536],[-0.778364080638938,52.88901698511492],[-0.7783722197807286,52.88911895505354],[-0.7783717473673002,52.88920465517171],[-0.7783622623103303,52.88929825891849],[-0.777921315401584,52.88924190395029],[-0.7773202044427652,52.88919855345021],[-0.7765506376409714,52.88918627933945],[-0.77583832317491,52.88929527370071],[-0.7754196245241496,52.88940038564009],[-0.7752972612347087,52.88959759386375],[-0.7753245253475061,52.88985235071296],[-0.7752976519687138,52.89003218305576],[-0.7749971171466652,52.89031444422851],[-0.7745206506241786,52.890673252172],[-0.7739249511333834,52.89119345404677],[-0.7735005053392818,52.89141304107817],[-0.7730108063807284,52.89143863663035],[-0.772615943047128,52.89141945125409],[-0.7722527556488523,52.8914194564821],[-0.7718708596390966,52.89141738209165],[-0.7716319006195249,52.89141738913636]]}},{"type":"Feature","properties":{"name":"1. Low Rig","folder":"Obstacles","obstacleNum":1,"kind":"point"},"geometry":{"type":"Point","coordinates":[-0.7681218658300526,52.89124679632054]}},{"type":"Feature","properties":{"name":"2. Lumberjacked","folder":"Obstacles","obstacleNum":2,"kind":"point"},"geometry":{"type":"Point","coordinates":[-0.7634475300907984,52.89146716773123]}},{"type":"Feature","properties":{"name":"3. Mud Mile","folder":"Obstacles","obstacleNum":3,"kind":"point"},"geometry":{"type":"Point","coordinates":[-0.7644810061553753,52.88981270235885]}},{"type":"Feature","properties":{"name":"4. Hero Walls/Skidmarked Combo","folder":"Obstacles","obstacleNum":4,"kind":"point"},"geometry":{"type":"Point","coordinates":[-0.755858134080315,52.89322086479819]}},{"type":"Feature","properties":{"name":"5. Devils Beard","folder":"Obstacles","obstacleNum":5,"kind":"point"},"geometry":{"type":"Point","coordinates":[-0.7606773326053462,52.88907751180894]}},{"type":"Feature","properties":{"name":"6. Twinkcrawl Toes","folder":"Obstacles","obstacleNum":6,"kind":"point"},"geometry":{"type":"Point","coordinates":[-0.7644858306854407,52.88851792194371]}},{"type":"Feature","properties":{"name":"7. Everest","folder":"Obstacles","obstacleNum":7,"kind":"point"},"geometry":{"type":"Point","coordinates":[-0.7659568156735475,52.88541204449332]}},{"type":"Feature","properties":{"name":"8. Oh Dam!","folder":"Obstacles","obstacleNum":8,"kind":"point"},"geometry":{"type":"Point","coordinates":[-0.7679922889228485,52.88474971445075]}},{"type":"Feature","properties":{"name":"9. George of the Jungle","folder":"Obstacles","obstacleNum":9,"kind":"point"},"geometry":{"type":"Point","coordinates":[-0.766380240755784,52.8839617028578]}},{"type":"Feature","properties":{"name":"10. Carrifecta","folder":"Obstacles","obstacleNum":10,"kind":"point"},"geometry":{"type":"Point","coordinates":[-0.7642794244108486,52.87903248751062]}},{"type":"Feature","properties":{"name":"11. Augustus Gloop","folder":"Obstacles","obstacleNum":11,"kind":"point"},"geometry":{"type":"Point","coordinates":[-0.7677008455678791,52.88066228354735]}},{"type":"Feature","properties":{"name":"12. The Hangover","folder":"Obstacles","obstacleNum":12,"kind":"point"},"geometry":{"type":"Point","coordinates":[-0.7735900601603907,52.8808156451494]}},{"type":"Feature","properties":{"name":"13. Arctic Enema","folder":"Obstacles","obstacleNum":13,"kind":"point"},"geometry":{"type":"Point","coordinates":[-0.7771306085973817,52.88096597455224]}},{"type":"Feature","properties":{"name":"14. Stairway to Heaven","folder":"Obstacles","obstacleNum":14,"kind":"point"},"geometry":{"type":"Point","coordinates":[-0.782672736423895,52.88052366286002]}},{"type":"Feature","properties":{"name":"15. On The Ropes","folder":"Obstacles","obstacleNum":15,"kind":"point"},"geometry":{"type":"Point","coordinates":[-0.7762169808979469,52.88269237049703]}},{"type":"Feature","properties":{"name":"16. Block Ness Monster","folder":"Obstacles","obstacleNum":16,"kind":"point"},"geometry":{"type":"Point","coordinates":[-0.774777389679574,52.88421209518523]}},{"type":"Feature","properties":{"name":"17. Pit Fall","folder":"Obstacles","obstacleNum":17,"kind":"point"},"geometry":{"type":"Point","coordinates":[-0.7763535222837847,52.88549114515563]}},{"type":"Feature","properties":{"name":"18. Kiss Of Mud","folder":"Obstacles","obstacleNum":18,"kind":"point"},"geometry":{"type":"Point","coordinates":[-0.7765600799174621,52.88560893029464]}},{"type":"Feature","properties":{"name":"19. Mudderhorn","folder":"Obstacles","obstacleNum":19,"kind":"point"},"geometry":{"type":"Point","coordinates":[-0.7736492203936629,52.89133962623871]}},{"type":"Feature","properties":{"name":"20. Electroshock Therapy","folder":"Obstacles","obstacleNum":20,"kind":"point"},"geometry":{"type":"Point","coordinates":[-0.7719404372288463,52.89142214838392]}},{"type":"Feature","properties":{"name":"Participant Direction","folder":"Direction Arrows","obstacleNum":null,"kind":"linestring"},"geometry":{"type":"LineString","coordinates":[[-0.7683745534062358,52.8913899234273],[-0.76802617515359,52.89140024926645],[-0.76803085876326,52.8914791907129],[-0.7678147615556119,52.89140786268916],[-0.7680254353899096,52.89132137454258],[-0.7680261283734002,52.89139927425194]]}},{"type":"Feature","properties":{"name":"Participant Direction","folder":"Direction Arrows","obstacleNum":null,"kind":"linestring"},"geometry":{"type":"LineString","coordinates":[[-0.7630945648855147,52.89163387586697],[-0.7631774597391461,52.89143155500456],[-0.7632691000459491,52.89145342830879],[-0.7632309524716396,52.89130783695896],[-0.7630841850581371,52.89140651795702],[-0.7631750799076042,52.89142997497144]]}},{"type":"Feature","properties":{"name":"Participant Direction","folder":"Direction Arrows","obstacleNum":null,"kind":"linestring"},"geometry":{"type":"LineString","coordinates":[[-0.7642604606611081,52.88997266457141],[-0.764354039871219,52.88978297415977],[-0.7642684268267053,52.88976641486695],[-0.7643828083659854,52.889685133236],[-0.764429454068446,52.88979578554053],[-0.7643535597012951,52.88978502867224]]}},{"type":"Feature","properties":{"name":"Participant Direction","folder":"Direction Arrows","obstacleNum":null,"kind":"linestring"},"geometry":{"type":"LineString","coordinates":[[-0.7563505974339613,52.89324107058388],[-0.7557646408787944,52.89338347628716],[-0.7557783825506148,52.89345307925266],[-0.7556369445099553,52.893419952371],[-0.7557151088073699,52.89330656307472],[-0.7557633963287413,52.89337396465842]]}},{"type":"Feature","properties":{"name":"Participant Direction","folder":"Direction Arrows","obstacleNum":null,"kind":"linestring"},"geometry":{"type":"LineString","coordinates":[[-0.7600751882678547,52.88948661090987],[-0.7601510100773057,52.88906704673137],[-0.760000008681958,52.88907409166019],[-0.7601600501406935,52.88895399501995],[-0.7602869303392912,52.88905741433901],[-0.7601454931821849,52.88906704642463]]}},{"type":"Feature","properties":{"name":"Participant Direction","folder":"Direction Arrows","obstacleNum":null,"kind":"linestring"},"geometry":{"type":"LineString","coordinates":[[-0.7644894568337623,52.88881859969072],[-0.7647023600979208,52.88855477952662],[-0.7646161248652661,52.88852599320876],[-0.7647729348147814,52.8884953180747],[-0.7647982408142373,52.88858934944243],[-0.7647087511697925,52.88855669937575]]}},{"type":"Feature","properties":{"name":"Participant Direction","folder":"Direction Arrows","obstacleNum":null,"kind":"linestring"},"geometry":{"type":"LineString","coordinates":[[-0.7655660225726879,52.88550535851941],[-0.7657699141691843,52.88525545587484],[-0.7656814627484265,52.88522326341565],[-0.7658182613143216,52.88519542300369],[-0.7658540787429347,52.88527514497723],[-0.7657651164975343,52.88525405220948]]}},{"type":"Feature","properties":{"name":"Participant Direction","folder":"Direction Arrows","obstacleNum":null,"kind":"linestring"},"geometry":{"type":"LineString","coordinates":[[-0.7682101060595259,52.8850005381513],[-0.7682962588300435,52.88475000963723],[-0.7682143073446557,52.88473536652639],[-0.768317763565326,52.88469689624506],[-0.7683672618479487,52.8847550204835],[-0.7682967201766744,52.88475085958393]]}},{"type":"Feature","properties":{"name":"Participant Direction","folder":"Direction Arrows","obstacleNum":null,"kind":"linestring"},"geometry":{"type":"LineString","coordinates":[[-0.7662068267251487,52.88415898418699],[-0.7662314716772778,52.8838360716766],[-0.7663175982786485,52.88384151628473],[-0.7662218199352122,52.88374755333481],[-0.7661271988991458,52.88382521009719],[-0.7662204972628106,52.8838333527867]]}},{"type":"Feature","properties":{"name":"Participant Direction","folder":"Direction Arrows","obstacleNum":null,"kind":"linestring"},"geometry":{"type":"LineString","coordinates":[[-0.7642612888674116,52.87923172777267],[-0.7644631266398072,52.87905379158815],[-0.7645500424758656,52.87908671961207],[-0.7645191517713412,52.87900190495865],[-0.7643868492586658,52.87902124979347],[-0.7644457035297325,52.87904507621729]]}},{"type":"Feature","properties":{"name":"Participant Direction","folder":"Direction Arrows","obstacleNum":null,"kind":"linestring"},"geometry":{"type":"LineString","coordinates":[[-0.767244142911816,52.88061982221382],[-0.7675481062556411,52.8808667078734],[-0.7674227606379658,52.88091570604524],[-0.7676435197462794,52.88097556481092],[-0.7676563072810405,52.88083047938727],[-0.7675553607406038,52.88086427889726]]}},{"type":"Feature","properties":{"name":"Participant Direction","folder":"Direction Arrows","obstacleNum":null,"kind":"linestring"},"geometry":{"type":"LineString","coordinates":[[-0.7730530063139562,52.88103355735879],[-0.7737082206048795,52.88104105044405],[-0.7737110340276443,52.88112922075354],[-0.7738586112203705,52.88104606752389],[-0.773705818463114,52.88096576812976],[-0.7737082206049295,52.88104105044402]]}},{"type":"Feature","properties":{"name":"Participant Direction","folder":"Direction Arrows","obstacleNum":null,"kind":"linestring"},"geometry":{"type":"LineString","coordinates":[[-0.7767503406860821,52.88113965958348],[-0.777272450896358,52.88114778171477],[-0.7772843852086964,52.88121753785649],[-0.7773954853941778,52.88115390496973],[-0.7772709449368109,52.88108458465756],[-0.7772756673137604,52.88113960524286]]}},{"type":"Feature","properties":{"name":"Participant Direction","folder":"Direction Arrows","obstacleNum":null,"kind":"linestring"},"geometry":{"type":"LineString","coordinates":[[-0.7824315080425148,52.88039230985268],[-0.7823454077606307,52.88061105513199],[-0.7822672895161975,52.88059620111913],[-0.7822933560379486,52.88067714663046],[-0.7824146378471042,52.88063870757767],[-0.7823630379335023,52.88061317788196]]}},{"type":"Feature","properties":{"name":"Participant Direction","folder":"Direction Arrows","obstacleNum":null,"kind":"linestring"},"geometry":{"type":"LineString","coordinates":[[-0.7760448992151137,52.88241517206465],[-0.7756768863975139,52.88276456544588],[-0.7755422375021304,52.88272123331382],[-0.7755781505527437,52.88286748735003],[-0.7758160238423994,52.88280789737373],[-0.7756948396039554,52.88276998188798]]}},{"type":"Feature","properties":{"name":"Participant Direction","folder":"Direction Arrows","obstacleNum":null,"kind":"linestring"},"geometry":{"type":"LineString","coordinates":[[-0.7752073597909692,52.88399838396158],[-0.7752116270003451,52.88443108541561],[-0.7753285587578518,52.88442403728116],[-0.7752166217958223,52.8845268407815],[-0.7751227798612192,52.88444167220286],[-0.7752034601802249,52.884425793521]]}},{"type":"Feature","properties":{"name":"Participant Direction","folder":"Direction Arrows","obstacleNum":null,"kind":"linestring"},"geometry":{"type":"LineString","coordinates":[[-0.7758126400822674,52.88552980711714],[-0.7763473400724219,52.88579447081349],[-0.776255002988383,52.88584089264307],[-0.7764473541072558,52.88585947388794],[-0.7764319795201424,52.8857689406171],[-0.776358881293211,52.88579447144368]]}},{"type":"Feature","properties":{"name":"Participant Direction","folder":"Direction Arrows","obstacleNum":null,"kind":"linestring"},"geometry":{"type":"LineString","coordinates":[[-0.774123036334915,52.89136621990707],[-0.7734720185463673,52.89159965728899],[-0.7735016408654649,52.89169303537877],[-0.7733177884124331,52.89164076515313],[-0.7733898816827367,52.89152320973565],[-0.7734590408769382,52.89158597593689]]}},{"type":"Feature","properties":{"name":"Ellison Boneyard","folder":"Venue Layout","obstacleNum":null,"kind":"polygon"},"geometry":{"type":"Polygon","coordinates":[[[-0.7739562495451158,52.89429409877445],[-0.7739282048370499,52.89397332185766],[-0.7738520908508262,52.89329753694887],[-0.7739078789323506,52.89310763392029],[-0.7739683220277394,52.89285015804376],[-0.7732232592572597,52.89285749472618],[-0.7733523188437774,52.89302997521561],[-0.7733244905966707,52.89336089294883],[-0.7731763318795559,52.89390998477152],[-0.7732654848114628,52.89441886757678],[-0.7739562495451158,52.89429409877445]]]}},{"type":"Feature","properties":{"name":"Ellison Boneyard","folder":"Venue Layout","obstacleNum":null,"kind":"point"},"geometry":{"type":"Point","coordinates":[-0.7736431146706058,52.89337083761207]}}]}